{
  "type": "FeatureCollection",
  "features": [
    {
      "type": "Feature",
      "properties": {
        "norad_id": 66554,
        "name": "GLOBAL-33",
        "group": "last-30-days",
        "lat": 41.6959069911373,
        "lon": 103.9504564292161,
        "alt_km": 462.193249820918,
        "timestamp": "2025-12-18T17:50:13.698882+00:00",
        "meta_object_name": "GLOBAL-33",
        "meta_object_id": "2025-267A",
        "meta_epoch": "2025-12-18T04:57:13.101696",
        "meta_mean_motion": 15.31667898,
        "meta_eccentricity": 0.0003598,
        "meta_inclination": 42.0218,
        "meta_ra_of_asc_node": 25.4335,
        "meta_arg_of_pericenter": 120.4223,
        "meta_mean_anomaly": 239.697,
        "meta_ephemeris_type": 0,
        "meta_classification_type": "U",
        "meta_norad_cat_id": 66554,
        "meta_element_set_no": 999,
        "meta_rev_at_epoch": 424,
        "meta_bstar": 0.00037991492,
        "meta_mean_motion_dot": 0.00011636,
        "meta_mean_motion_ddot": 0,
        "tle_line1": "1 66554U 25267A   25352.20640164  .00011636  00000+0  37991-3 0  9996",
        "tle_line2": "2 66554  42.0218  25.4335 0003598 120.4223 239.6970 15.31667898  4246"
      },
      "geometry": {
        "type": "Point",
        "coordinates": [
          103.9504564292161,
          41.6959069911373
        ]
      }
    },
    {
      "type": "Feature",
      "properties": {
        "norad_id": 66555,
        "name": "ELECTRON KICK STAGE R/B",
        "group": "last-30-days",
        "lat": 1.3577941082951523,
        "lon": -159.403475310119,
        "alt_km": 464.9521131576794,
        "timestamp": "2025-12-18T17:50:13.698893+00:00",
        "meta_object_name": "ELECTRON KICK STAGE R/B",
        "meta_object_id": "2025-267B",
        "meta_epoch": "2025-12-18T06:07:15.055968",
        "meta_mean_motion": 15.33072736,
        "meta_eccentricity": 0.00067564,
        "meta_inclination": 42.0196,
        "meta_ra_of_asc_node": 24.9307,
        "meta_arg_of_pericenter": 98.5116,
        "meta_mean_anomaly": 261.6488,
        "meta_ephemeris_type": 0,
        "meta_classification_type": "U",
        "meta_norad_cat_id": 66555,
        "meta_element_set_no": 999,
        "meta_rev_at_epoch": 425,
        "meta_bstar": 0.00070622545,
        "meta_mean_motion_dot": 0.00022888,
        "meta_mean_motion_ddot": 0,
        "tle_line1": "1 66555U 25267B   25352.25503537  .00022888  00000+0  70623-3 0  9994",
        "tle_line2": "2 66555  42.0196  24.9307 0006756  98.5116 261.6488 15.33072736  4253"
      },
      "geometry": {
        "type": "Point",
        "coordinates": [
          -159.403475310119,
          1.3577941082951523
        ]
      }
    },
    {
      "type": "Feature",
      "properties": {
        "norad_id": 66557,
        "name": "STARLINK-35699",
        "group": "last-30-days",
        "lat": 6.212889393452967,
        "lon": -100.61933598417711,
        "alt_km": 413.71575024257436,
        "timestamp": "2025-12-18T17:50:13.698904+00:00",
        "meta_object_name": "STARLINK-35699",
        "meta_object_id": "2025-268A",
        "meta_epoch": "2025-12-18T06:16:58.643040",
        "meta_mean_motion": 15.50604014,
        "meta_eccentricity": 2.854e-05,
        "meta_inclination": 43.0006,
        "meta_ra_of_asc_node": 88.9063,
        "meta_arg_of_pericenter": 296.0515,
        "meta_mean_anomaly": 64.0315,
        "meta_ephemeris_type": 0,
        "meta_classification_type": "U",
        "meta_norad_cat_id": 66557,
        "meta_element_set_no": 999,
        "meta_rev_at_epoch": 548,
        "meta_bstar": 0.0017607106,
        "meta_mean_motion_dot": 0.00104432,
        "meta_mean_motion_ddot": 0,
        "tle_line1": "1 66557U 25268A   25352.26178985  .00104432  00000+0  17607-2 0  9991",
        "tle_line2": "2 66557  43.0006  88.9063 0000285 296.0515  64.0315 15.50604014  5483"
      },
      "geometry": {
        "type": "Point",
        "coordinates": [
          -100.61933598417711,
          6.212889393452967
        ]
      }
    },
    {
      "type": "Feature",
      "properties": {
        "norad_id": 66558,
        "name": "STARLINK-35695",
        "group": "last-30-days",
        "lat": 4.840310225492733,
        "lon": -99.130084106922,
        "alt_km": 414.2578470964336,
        "timestamp": "2025-12-18T17:50:13.698915+00:00",
        "meta_object_name": "STARLINK-35695",
        "meta_object_id": "2025-268B",
        "meta_epoch": "2025-12-18T00:05:28.220640",
        "meta_mean_motion": 15.50633257,
        "meta_eccentricity": 0.00028075,
        "meta_inclination": 43.0005,
        "meta_ra_of_asc_node": 90.4106,
        "meta_arg_of_pericenter": 280.5511,
        "meta_mean_anomaly": 79.5033,
        "meta_ephemeris_type": 0,
        "meta_classification_type": "U",
        "meta_norad_cat_id": 66558,
        "meta_element_set_no": 999,
        "meta_rev_at_epoch": 544,
        "meta_bstar": 0.0018156431,
        "meta_mean_motion_dot": 0.00107869,
        "meta_mean_motion_ddot": 0,
        "tle_line1": "1 66558U 25268B   25352.00379885  .00107869  00000+0  18156-2 0  9993",
        "tle_line2": "2 66558  43.0005  90.4106 0002807 280.5511  79.5033 15.50633257  5440"
      },
      "geometry": {
        "type": "Point",
        "coordinates": [
          -99.130084106922,
          4.840310225492733
        ]
      }
    },
    {
      "type": "Feature",
      "properties": {
        "norad_id": 66559,
        "name": "STARLINK-35419",
        "group": "last-30-days",
        "lat": 3.589841192835721,
        "lon": -97.77908509298409,
        "alt_km": 414.2730374958046,
        "timestamp": "2025-12-18T17:50:13.698925+00:00",
        "meta_object_name": "STARLINK-35419",
        "meta_object_id": "2025-268C",
        "meta_epoch": "2025-12-18T00:04:57.419040",
        "meta_mean_motion": 15.50581937,
        "meta_eccentricity": 0.00018951,
        "meta_inclination": 43.0022,
        "meta_ra_of_asc_node": 90.4094,
        "meta_arg_of_pericenter": 275.3774,
        "meta_mean_anomaly": 84.687,
        "meta_ephemeris_type": 0,
        "meta_classification_type": "U",
        "meta_norad_cat_id": 66559,
        "meta_element_set_no": 999,
        "meta_rev_at_epoch": 544,
        "meta_bstar": 0.0015246885,
        "meta_mean_motion_dot": 0.00090152,
        "meta_mean_motion_ddot": 0,
        "tle_line1": "1 66559U 25268C   25352.00344235  .00090152  00000+0  15247-2 0  9999",
        "tle_line2": "2 66559  43.0022  90.4094 0001895 275.3774  84.6870 15.50581937  5448"
      },
      "geometry": {
        "type": "Point",
        "coordinates": [
          -97.77908509298409,
          3.589841192835721
        ]
      }
    },
    {
      "type": "Feature",
      "properties": {
        "norad_id": 66560,
        "name": "STARLINK-35411",
        "group": "last-30-days",
        "lat": 2.2206995459131633,
        "lon": -96.30997856228294,
        "alt_km": 414.2088949622366,
        "timestamp": "2025-12-18T17:50:13.698938+00:00",
        "meta_object_name": "STARLINK-35411",
        "meta_object_id": "2025-268D",
        "meta_epoch": "2025-12-18T00:04:28.174368",
        "meta_mean_motion": 15.5060011,
        "meta_eccentricity": 9.925e-05,
        "meta_inclination": 43.0001,
        "meta_ra_of_asc_node": 90.4058,
        "meta_arg_of_pericenter": 284.0327,
        "meta_mean_anomaly": 76.0423,
        "meta_ephemeris_type": 0,
        "meta_classification_type": "U",
        "meta_norad_cat_id": 66560,
        "meta_element_set_no": 999,
        "meta_rev_at_epoch": 544,
        "meta_bstar": 0.0019422689,
        "meta_mean_motion_dot": 0.00115382,
        "meta_mean_motion_ddot": 0,
        "tle_line1": "1 66560U 25268D   25352.00310387  .00115382  00000+0  19423-2 0  9995",
        "tle_line2": "2 66560  43.0001  90.4058 0000992 284.0327  76.0423 15.50600110  5449"
      },
      "geometry": {
        "type": "Point",
        "coordinates": [
          -96.30997856228294,
          2.2206995459131633
        ]
      }
    },
    {
      "type": "Feature",
      "properties": {
        "norad_id": 66561,
        "name": "STARLINK-35305",
        "group": "last-30-days",
        "lat": -0.3905576321627581,
        "lon": -93.51482932872727,
        "alt_km": 414.41307327374125,
        "timestamp": "2025-12-18T17:50:13.698948+00:00",
        "meta_object_name": "STARLINK-35305",
        "meta_object_id": "2025-268E",
        "meta_epoch": "2025-12-18T00:03:29.017152",
        "meta_mean_motion": 15.50603624,
        "meta_eccentricity": 9.191e-05,
        "meta_inclination": 43.0009,
        "meta_ra_of_asc_node": 90.4008,
        "meta_arg_of_pericenter": 275.7133,
        "meta_mean_anomaly": 84.3622,
        "meta_ephemeris_type": 0,
        "meta_classification_type": "U",
        "meta_norad_cat_id": 66561,
        "meta_element_set_no": 999,
        "meta_rev_at_epoch": 544,
        "meta_bstar": 0.0018887599,
        "meta_mean_motion_dot": 0.00112161,
        "meta_mean_motion_ddot": 0,
        "tle_line1": "1 66561U 25268E   25352.00241918  .00112161  00000+0  18888-2 0  9995",
        "tle_line2": "2 66561  43.0009  90.4008 0000919 275.7133  84.3622 15.50603624  5440"
      },
      "geometry": {
        "type": "Point",
        "coordinates": [
          -93.51482932872727,
          -0.3905576321627581
        ]
      }
    }
  ]
}